CORVUS BC4              
1 43767U 18099K   26068.65923737  .00005714  00000+0  33980-3 0  9990
2 43767  97.4206 114.5457 0008046 356.5821   3.5354 15.11615710397368
STARLINK-3346           
1 50821U 22001U   26068.59231829  .00000358  00000+0  40580-4 0  9998
2 50821  53.2177 169.4427 0001325  91.9280 268.1864 15.08837433230390
